[{"OBJECT_NAME":"A-SEANSAT-PG1","OBJECT_ID":"2023-091AH","EPOCH":"2026-03-09T22:32:06.495648","MEAN_MOTION":15.33422293,"ECCENTRICITY":0.00088895,"INCLINATION":97.5184,"RA_OF_ASC_NODE":136.6191,"ARG_OF_PERICENTER":78.3219,"MEAN_ANOMALY":281.902,"EPHEMERIS_TYPE":0,"CLASSIFICATION_TYPE":"U","NORAD_CAT_ID":57197,"ELEMENT_SET_NO":999,"REV_AT_EPOCH":14948,"BSTAR":0.0007038551,"MEAN_MOTION_DOT":0.00022724,"MEAN_MOTION_DDOT":0},{"OBJECT_NAME":"STARLINK-31918","OBJECT_ID":"2024-111X","EPOCH":"2026-03-09T08:15:29.680128","MEAN_MOTION":15.30187059,"ECCENTRICITY":0.00013962,"INCLINATION":53.1608,"RA_OF_ASC_NODE":77.0086,"ARG_OF_PERICENTER":95.6385,"MEAN_ANOMALY":264.4775,"EPHEMERIS_TYPE":0,"CLASSIFICATION_TYPE":"U","NORAD_CAT_ID":60037,"ELEMENT_SET_NO":999,"REV_AT_EPOCH":9891,"BSTAR":-1.4832514e-5,"MEAN_MOTION_DOT":-7.98e-6,"MEAN_MOTION_DDOT":0}]
